[{"OBJECT_NAME":"YAOGAN-30 10A","OBJECT_ID":"2021-055A","EPOCH":"2026-03-09T23:48:28.291104","MEAN_MOTION":15.02193247,"ECCENTRICITY":0.0004983,"INCLINATION":34.9965,"RA_OF_ASC_NODE":36.5937,"ARG_OF_PERICENTER":279.793,"MEAN_ANOMALY":80.2215,"EPHEMERIS_TYPE":0,"CLASSIFICATION_TYPE":"U","NORAD_CAT_ID":48860,"ELEMENT_SET_NO":999,"REV_AT_EPOCH":25825,"BSTAR":0.00036861198,"MEAN_MOTION_DOT":4.929e-5,"MEAN_MOTION_DDOT":0},{"OBJECT_NAME":"STARLINK-5947","OBJECT_ID":"2023-042D","EPOCH":"2026-03-09T09:29:28.849056","MEAN_MOTION":15.02534572,"ECCENTRICITY":0.0001391,"INCLINATION":43.004,"RA_OF_ASC_NODE":57.923,"ARG_OF_PERICENTER":275.2329,"MEAN_ANOMALY":84.8355,"EPHEMERIS_TYPE":0,"CLASSIFICATION_TYPE":"U","NORAD_CAT_ID":55989,"ELEMENT_SET_NO":999,"REV_AT_EPOCH":16286,"BSTAR":-4.389085e-6,"MEAN_MOTION_DOT":-2.63e-6,"MEAN_MOTION_DDOT":0}]
